start=new Date('2021-12-22T00:00:00.000Z').valueOf();
sats=[{"MEAN_MOTION_DOT":"0.00001794","APOAPSIS":"548.131","RA_OF_ASC_NODE":"105.2120","CENTER_NAME":"EARTH","RCS_SIZE":"LARGE","TIME_SYSTEM":"UTC","LAUNCH_DATE":"2020-06-04","BSTAR":"0.00013926000000","INCLINATION":"53.0538","OBJECT_TYPE":"PAYLOAD","REF_FRAME":"TEME","MEAN_MOTION_DDOT":"0.0000000000000","PERIOD":"95.592","TLE_LINE1":"1 45672U 20035R   21355.74694597  .00001794  00000-0  13926-3 0  9996","OBJECT_NAME":"STARLINK-1455","REV_AT_EPOCH":"8719","DECAY_DATE":null,"TLE_LINE2":"2 45672  53.0538 105.2120 0001366  85.5953 274.5192 15.06409202 87196","SITE":"AFETR","MEAN_ANOMALY":"274.5192","ARG_OF_PERICENTER":"85.5953","GP_ID":"192176596","MEAN_ELEMENT_THEORY":"SGP4","EPOCH":"2021-12-21T17:55:36.131808","NORAD_CAT_ID":"45672","PERIAPSIS":"546.239","OBJECT_ID":"2020-035R","MEAN_MOTION":"15.06409202","EPHEMERIS_TYPE":"0","ELEMENT_SET_NO":"999","ECCENTRICITY":"0.00013660","CLASSIFICATION_TYPE":"U","FILE":"3246784","SEMIMAJOR_AXIS":"6925.320","COUNTRY_CODE":"US"},{"ECCENTRICITY":"0.00018340","SEMIMAJOR_AXIS":"6925.357","FILE":"3246667","CLASSIFICATION_TYPE":"U","COUNTRY_CODE":"US","MEAN_ANOMALY":"274.0854","TLE_LINE2":"2 45673  53.0530 135.1843 0001834  86.0344 274.0854 15.06397230 86379","SITE":"AFETR","EPOCH":"2021-12-21T18:02:15.237600","MEAN_ELEMENT_THEORY":"SGP4","GP_ID":"192154531","ARG_OF_PERICENTER":"86.0344","MEAN_MOTION":"15.06397230","OBJECT_ID":"2020-035S","PERIAPSIS":"545.952","NORAD_CAT_ID":"45673","ELEMENT_SET_NO":"999","EPHEMERIS_TYPE":"0","REF_FRAME":"TEME","OBJECT_TYPE":"PAYLOAD","TLE_LINE1":"1 45673U 20035S   21355.75156525  .00000655  00000-0  62851-4 0  9999","PERIOD":"95.592","MEAN_MOTION_DDOT":"0.0000000000000","REV_AT_EPOCH":"8637","OBJECT_NAME":"STARLINK-1456","DECAY_DATE":null,"APOAPSIS":"548.492","MEAN_MOTION_DOT":"0.00000655","RCS_SIZE":"LARGE","CENTER_NAME":"EARTH","RA_OF_ASC_NODE":"135.1843","INCLINATION":"53.0530","BSTAR":"0.00006285100000","LAUNCH_DATE":"2020-06-04","TIME_SYSTEM":"UTC"},{"MEAN_MOTION_DOT":"0.00001115","APOAPSIS":"548.385","RA_OF_ASC_NODE":"134.8503","CENTER_NAME":"EARTH","RCS_SIZE":"LARGE","TIME_SYSTEM":"UTC","LAUNCH_DATE":"2020-06-04","BSTAR":"0.00009372800000","INCLINATION":"53.0539","OBJECT_TYPE":"PAYLOAD","REF_FRAME":"TEME","MEAN_MOTION_DDOT":"0.0000000000000","PERIOD":"95.592","TLE_LINE1":"1 45674U 20035T   21355.82528366  .00001115  00000-0  93728-4 0  9993","OBJECT_NAME":"STARLINK-1457","REV_AT_EPOCH":"8676","DECAY_DATE":null,"SITE":"AFETR","TLE_LINE2":"2 45674  53.0539 134.8503 0001672  96.4248 263.6931 15.06395620 86760","MEAN_ANOMALY":"263.6931","ARG_OF_PERICENTER":"96.4248","GP_ID":"192176097","MEAN_ELEMENT_THEORY":"SGP4","EPOCH":"2021-12-21T19:48:24.508224","NORAD_CAT_ID":"45674","PERIAPSIS":"546.069","OBJECT_ID":"2020-035T","MEAN_MOTION":"15.06395620","EPHEMERIS_TYPE":"0","ELEMENT_SET_NO":"999","ECCENTRICITY":"0.00016720","CLASSIFICATION_TYPE":"U","FILE":"3246784","SEMIMAJOR_AXIS":"6925.362","COUNTRY_CODE":"US"},{"GP_ID":"192176347","ARG_OF_PERICENTER":"87.0389","MEAN_ELEMENT_THEORY":"SGP4","EPOCH":"2021-12-21T21:08:01.647168","SITE":"AFETR","TLE_LINE2":"2 45675  53.0527 134.6039 0001827  87.0389 273.0809 15.06396523 86766","MEAN_ANOMALY":"273.0809","EPHEMERIS_TYPE":"0","ELEMENT_SET_NO":"999","PERIAPSIS":"545.959","NORAD_CAT_ID":"45675","MEAN_MOTION":"15.06396523","OBJECT_ID":"2020-035U","CLASSIFICATION_TYPE":"U","SEMIMAJOR_AXIS":"6925.359","FILE":"3246784","ECCENTRICITY":"0.00018270","COUNTRY_CODE":"US","CENTER_NAME":"EARTH","RA_OF_ASC_NODE":"134.6039","RCS_SIZE":"LARGE","MEAN_MOTION_DOT":"0.00000224","APOAPSIS":"548.489","LAUNCH_DATE":"2020-06-04","TIME_SYSTEM":"UTC","INCLINATION":"53.0527","BSTAR":"0.00003396400000","PERIOD":"95.592","MEAN_MOTION_DDOT":"0.0000000000000","TLE_LINE1":"1 45675U 20035U   21355.88057462  .00000224  00000-0  33964-4 0  9990","REF_FRAME":"TEME","OBJECT_TYPE":"PAYLOAD","DECAY_DATE":null,"REV_AT_EPOCH":"8676","OBJECT_NAME":"STARLINK-1458"},{"COUNTRY_CODE":"US","CLASSIFICATION_TYPE":"U","SEMIMAJOR_AXIS":"6925.362","FILE":"3246784","ECCENTRICITY":"0.00016980","EPHEMERIS_TYPE":"0","ELEMENT_SET_NO":"999","PERIAPSIS":"546.051","NORAD_CAT_ID":"45676","MEAN_MOTION":"15.06395589","OBJECT_ID":"2020-035V","GP_ID":"192177096","ARG_OF_PERICENTER":"91.2287","EPOCH":"2021-12-21T17:14:29.403168","MEAN_ELEMENT_THEORY":"SGP4","SITE":"AFETR","TLE_LINE2":"2 45676  53.0551 135.3205 0001698  91.2287 268.8896 15.06395589 86733","MEAN_ANOMALY":"268.8896","DECAY_DATE":null,"REV_AT_EPOCH":"8673","OBJECT_NAME":"STARLINK-1460","PERIOD":"95.592","MEAN_MOTION_DDOT":"0.0000000000000","TLE_LINE1":"1 45676U 20035V   21355.71839587 -.00000348  00000-0 -44433-5 0  9992","REF_FRAME":"TEME","OBJECT_TYPE":"PAYLOAD","LAUNCH_DATE":"2020-06-04","TIME_SYSTEM":"UTC","INCLINATION":"53.0551","BSTAR":"-0.00000444330000","CENTER_NAME":"EARTH","RA_OF_ASC_NODE":"135.3205","RCS_SIZE":"LARGE","MEAN_MOTION_DOT":"-0.00000348","APOAPSIS":"548.403"},{"CLASSIFICATION_TYPE":"U","FILE":"3246784","SEMIMAJOR_AXIS":"6925.351","ECCENTRICITY":"0.00015490","COUNTRY_CODE":"US","ARG_OF_PERICENTER":"90.2503","GP_ID":"192177349","MEAN_ELEMENT_THEORY":"SGP4","EPOCH":"2021-12-21T20:41:28.858848","SITE":"AFETR","TLE_LINE2":"2 45677  53.0548 134.6938 0001549  90.2503 269.8664 15.06399211 86796","MEAN_ANOMALY":"269.8664","EPHEMERIS_TYPE":"0","ELEMENT_SET_NO":"999","NORAD_CAT_ID":"45677","PERIAPSIS":"546.143","OBJECT_ID":"2020-035W","MEAN_MOTION":"15.06399211","MEAN_MOTION_DDOT":"0.0000000000000","PERIOD":"95.592","TLE_LINE1":"1 45677U 20035W   21355.86213957 -.00001288  00000-0 -67565-4 0  9990","OBJECT_TYPE":"PAYLOAD","REF_FRAME":"TEME","DECAY_DATE":null,"OBJECT_NAME":"STARLINK-1392","REV_AT_EPOCH":"8679","RA_OF_ASC_NODE":"134.6938","CENTER_NAME":"EARTH","RCS_SIZE":"LARGE","MEAN_MOTION_DOT":"-0.00001288","APOAPSIS":"548.289","TIME_SYSTEM":"UTC","LAUNCH_DATE":"2020-06-04","BSTAR":"-0.00006756500000","INCLINATION":"53.0548"},{"LAUNCH_DATE":"2020-06-04","TIME_SYSTEM":"UTC","INCLINATION":"53.0528","BSTAR":"-0.00004867500000","MEAN_MOTION_DOT":"-0.00001006","APOAPSIS":"548.347","CENTER_NAME":"EARTH","RA_OF_ASC_NODE":"124.7094","RCS_SIZE":"LARGE","REV_AT_EPOCH":"8691","OBJECT_NAME":"STARLINK-1393","DECAY_DATE":null,"REF_FRAME":"TEME","OBJECT_TYPE":"PAYLOAD","PERIOD":"95.593","MEAN_MOTION_DDOT":"0.0000000000000","TLE_LINE1":"1 45678U 20035X   21355.85569352 -.00001006  00000-0 -48675-4 0  9992","PERIAPSIS":"546.120","NORAD_CAT_ID":"45678","MEAN_MOTION":"15.06393593","OBJECT_ID":"2020-035X","EPHEMERIS_TYPE":"0","ELEMENT_SET_NO":"999","SITE":"AFETR","TLE_LINE2":"2 45678  53.0528 124.7094 0001608  93.9414 266.1759 15.06393593 86911","MEAN_ANOMALY":"266.1759","GP_ID":"192175598","ARG_OF_PERICENTER":"93.9414","EPOCH":"2021-12-21T20:32:11.920128","MEAN_ELEMENT_THEORY":"SGP4","COUNTRY_CODE":"US","ECCENTRICITY":"0.00016080","CLASSIFICATION_TYPE":"U","SEMIMAJOR_AXIS":"6925.368","FILE":"3246784"},{"SITE":"AFETR","TLE_LINE2":"2 45679  53.0548 124.7020 0001801 102.6407 257.4784 15.06410297 86932","MEAN_ANOMALY":"257.4784","GP_ID":"192175848","ARG_OF_PERICENTER":"102.6407","MEAN_ELEMENT_THEORY":"SGP4","EPOCH":"2021-12-21T20:37:30.618624","PERIAPSIS":"545.935","NORAD_CAT_ID":"45679","MEAN_MOTION":"15.06410297","OBJECT_ID":"2020-035Y","EPHEMERIS_TYPE":"0","ELEMENT_SET_NO":"999","ECCENTRICITY":"0.00018010","CLASSIFICATION_TYPE":"U","SEMIMAJOR_AXIS":"6925.317","FILE":"3246784","COUNTRY_CODE":"US","MEAN_MOTION_DOT":"-0.00000454","APOAPSIS":"548.429","CENTER_NAME":"EARTH","RA_OF_ASC_NODE":"124.7020","RCS_SIZE":"LARGE","LAUNCH_DATE":"2020-06-04","TIME_SYSTEM":"UTC","INCLINATION":"53.0548","BSTAR":"-0.00001158300000","REF_FRAME":"TEME","OBJECT_TYPE":"PAYLOAD","PERIOD":"95.591","MEAN_MOTION_DDOT":"0.0000000000000","TLE_LINE1":"1 45679U 20035Y   21355.85938216 -.00000454  00000-0 -11583-4 0  9996","REV_AT_EPOCH":"8693","OBJECT_NAME":"STARLINK-1394","DECAY_DATE":null},{"OBJECT_ID":"2020-035Z","MEAN_MOTION":"15.06407013","NORAD_CAT_ID":"45680","PERIAPSIS":"546.111","ELEMENT_SET_NO":"999","EPHEMERIS_TYPE":"0","MEAN_ANOMALY":"262.9132","SITE":"AFETR","TLE_LINE2":"2 45680  53.0545 125.2657 0001561  97.2034 262.9132 15.06407013 86908","EPOCH":"2021-12-21T17:37:02.028000","MEAN_ELEMENT_THEORY":"SGP4","ARG_OF_PERICENTER":"97.2034","GP_ID":"192176597","COUNTRY_CODE":"US","ECCENTRICITY":"0.00015610","FILE":"3246784","SEMIMAJOR_AXIS":"6925.327","CLASSIFICATION_TYPE":"U","BSTAR":"0.00010651000000","INCLINATION":"53.0545","TIME_SYSTEM":"UTC","LAUNCH_DATE":"2020-06-04","APOAPSIS":"548.273","MEAN_MOTION_DOT":"0.00001306","RCS_SIZE":"LARGE","RA_OF_ASC_NODE":"125.2657","CENTER_NAME":"EARTH","OBJECT_NAME":"STARLINK-1395","REV_AT_EPOCH":"8690","DECAY_DATE":null,"OBJECT_TYPE":"PAYLOAD","REF_FRAME":"TEME","TLE_LINE1":"1 45680U 20035Z   21355.73405125  .00001306  00000-0  10651-3 0  9992","MEAN_MOTION_DDOT":"0.0000000000000","PERIOD":"95.592"},{"COUNTRY_CODE":"US","CLASSIFICATION_TYPE":"U","FILE":"3246784","SEMIMAJOR_AXIS":"6925.355","ECCENTRICITY":"0.00018860","EPHEMERIS_TYPE":"0","ELEMENT_SET_NO":"999","NORAD_CAT_ID":"45681","PERIAPSIS":"545.914","OBJECT_ID":"2020-035AA","MEAN_MOTION":"15.06397933","ARG_OF_PERICENTER":"94.5864","GP_ID":"192176850","MEAN_ELEMENT_THEORY":"SGP4","EPOCH":"2021-12-21T20:42:48.781440","TLE_LINE2":"2 45681  53.0535 124.6741 0001886  94.5864 265.5340 15.06397933 86938","SITE":"AFETR","MEAN_ANOMALY":"265.5340","DECAY_DATE":null,"OBJECT_NAME":"STARLINK-1396","REV_AT_EPOCH":"8693","MEAN_MOTION_DDOT":"0.0000000000000","PERIOD":"95.592","TLE_LINE1":"1 45681U 20035AA  21355.86306460 -.00000681  00000-0 -26822-4 0  9994","OBJECT_TYPE":"PAYLOAD","REF_FRAME":"TEME","TIME_SYSTEM":"UTC","LAUNCH_DATE":"2020-06-04","BSTAR":"-0.00002682200000","INCLINATION":"53.0535","RA_OF_ASC_NODE":"124.6741","CENTER_NAME":"EARTH","RCS_SIZE":"LARGE","MEAN_MOTION_DOT":"-0.00000681","APOAPSIS":"548.526"}];
